{
  "links" : {
    "next" : "https://api.nasa.gov/neo/rest/v1/feed?start_date=2016-07-16&end_date=2016-07-16&detailed=true&api_key=t0TVs3DtDT2H8Oy2Zy8m2eVrNsAVKAexjcZXUckd",
    "prev" : "https://api.nasa.gov/neo/rest/v1/feed?start_date=2016-07-14&end_date=2016-07-14&detailed=true&api_key=t0TVs3DtDT2H8Oy2Zy8m2eVrNsAVKAexjcZXUckd",
    "self" : "https://api.nasa.gov/neo/rest/v1/feed?start_date=2016-07-15&end_date=2016-07-15&detailed=true&api_key=t0TVs3DtDT2H8Oy2Zy8m2eVrNsAVKAexjcZXUckd"
  },
  "element_count" : 10,
  "near_earth_objects" : {
    "2016-07-15" : [ {
      "links" : {
        "self" : "https://api.nasa.gov/neo/rest/v1/neo/3757411?api_key=t0TVs3DtDT2H8Oy2Zy8m2eVrNsAVKAexjcZXUckd"
      },
      "neo_reference_id" : "3757411",
      "name" : "(2016 PZ39)",
      "nasa_jpl_url" : "http://ssd.jpl.nasa.gov/sbdb.cgi?sstr=3757411",
      "absolute_magnitude_h" : 19.4,
      "estimated_diameter" : {
        "kilometers" : {
          "estimated_diameter_min" : 0.3503926411,
          "estimated_diameter_max" : 0.7835017643
        },
        "meters" : {
          "estimated_diameter_min" : 350.3926411083,
          "estimated_diameter_max" : 783.5017643338
        },
        "miles" : {
          "estimated_diameter_min" : 0.2177238258,
          "estimated_diameter_max" : 0.4868452748
        },
        "feet" : {
          "estimated_diameter_min" : 1149.5821926537,
          "estimated_diameter_max" : 2570.543928497
        }
      },
      "is_potentially_hazardous_asteroid" : true,
      "close_approach_data" : [ {
        "close_approach_date" : "2016-07-15",
        "epoch_date_close_approach" : 1468566000000,
        "relative_velocity" : {
          "kilometers_per_second" : "22.1350707904",
          "kilometers_per_hour" : "79686.2548453705",
          "miles_per_hour" : "49513.9398510026"
        },
        "miss_distance" : {
          "astronomical" : "0.1097315016",
          "lunar" : "42.6855545044",
          "kilometers" : "16415599",
          "miles" : "10200181"
        },
        "orbiting_body" : "Earth"
      } ],
      "orbital_data" : {
        "orbit_id" : "7",
        "orbit_determination_date" : "2017-04-06 08:24:32",
        "orbit_uncertainty" : "6",
        "minimum_orbit_intersection" : ".0242607",
        "jupiter_tisserand_invariant" : "3.107",
        "epoch_osculation" : "2458000.5",
        "eccentricity" : ".7864888043016985",
        "semi_major_axis" : "2.268933040443557",
        "inclination" : "4.241367318256841",
        "ascending_node_longitude" : "79.76032890226161",
        "orbital_period" : "1248.334421752484",
        "perihelion_distance" : ".4844426064244865",
        "perihelion_argument" : "118.2352041302757",
        "aphelion_distance" : "4.053423474462628",
        "perihelion_time" : "2457538.854361374080",
        "mean_anomaly" : "133.1313364507091",
        "mean_motion" : ".2883842612419605",
        "equinox" : "J2000"
      }
    } ]
  }
}